start=new Date('2023-06-19T00:00:00.000Z').valueOf();
sats=[{"SEMIMAJOR_AXIS":"6925.364","MEAN_ELEMENT_THEORY":"SGP4","LAUNCH_DATE":"2021-03-11","PERIAPSIS":"546.179","ECCENTRICITY":"0.00015170","MEAN_MOTION_DDOT":"0.0000000000000","ELEMENT_SET_NO":"999","OBJECT_NAME":"STARLINK-2401","TIME_SYSTEM":"UTC","APOAPSIS":"548.280","EPOCH":"2023-06-18T18:24:04.989888","GP_ID":"234219611","NORAD_CAT_ID":"47818","SITE":"AFETR","PERIOD":"95.592","BSTAR":"0.00002560200000","TLE_LINE1":"1 47818U 21018AH  23169.76672442  .00000100  00000-0  25602-4 0  9999","DECAY_DATE":null,"CLASSIFICATION_TYPE":"U","REV_AT_EPOCH":"12623","MEAN_MOTION":"15.06394918","MEAN_MOTION_DOT":"0.00000100","OBJECT_ID":"2021-018AH","EPHEMERIS_TYPE":"0","FILE":"3936586","RCS_SIZE":"LARGE","CENTER_NAME":"EARTH","REF_FRAME":"TEME","COUNTRY_CODE":"US","OBJECT_TYPE":"PAYLOAD","RA_OF_ASC_NODE":"42.9920","MEAN_ANOMALY":"270.1531","INCLINATION":"53.0552","ARG_OF_PERICENTER":"89.9632","TLE_LINE2":"2 47818  53.0552  42.9920 0001517  89.9632 270.1531 15.06394918126236"},{"ECCENTRICITY":"0.00013840","PERIAPSIS":"546.221","LAUNCH_DATE":"2021-03-11","MEAN_ELEMENT_THEORY":"SGP4","SEMIMAJOR_AXIS":"6925.315","APOAPSIS":"548.138","TIME_SYSTEM":"UTC","OBJECT_NAME":"STARLINK-2402","ELEMENT_SET_NO":"999","MEAN_MOTION_DDOT":"0.0000000000000","REV_AT_EPOCH":"12663","DECAY_DATE":null,"CLASSIFICATION_TYPE":"U","TLE_LINE1":"1 47819U 21018AJ  23169.34513770  .00007503  00000-0  52191-3 0  9998","BSTAR":"0.00052191000000","PERIOD":"95.591","SITE":"AFETR","NORAD_CAT_ID":"47819","GP_ID":"234210197","EPOCH":"2023-06-18T08:16:59.897280","ARG_OF_PERICENTER":"94.4467","TLE_LINE2":"2 47819  53.0537  39.8837 0001384  94.4467 265.6680 15.06411050126636","INCLINATION":"53.0537","MEAN_ANOMALY":"265.6680","OBJECT_TYPE":"PAYLOAD","RA_OF_ASC_NODE":"39.8837","COUNTRY_CODE":"US","REF_FRAME":"TEME","CENTER_NAME":"EARTH","RCS_SIZE":"LARGE","FILE":"3936420","EPHEMERIS_TYPE":"0","OBJECT_ID":"2021-018AJ","MEAN_MOTION_DOT":"0.00007503","MEAN_MOTION":"15.06411050"},{"SEMIMAJOR_AXIS":"6925.364","MEAN_ELEMENT_THEORY":"SGP4","ECCENTRICITY":"0.00013500","LAUNCH_DATE":"2021-03-11","PERIAPSIS":"546.294","MEAN_MOTION_DDOT":"0.0000000000000","ELEMENT_SET_NO":"999","OBJECT_NAME":"STARLINK-2403","APOAPSIS":"548.164","TIME_SYSTEM":"UTC","NORAD_CAT_ID":"47820","GP_ID":"234244911","EPOCH":"2023-06-18T18:59:15.906048","SITE":"AFETR","PERIOD":"95.592","TLE_LINE1":"1 47820U 21018AK  23169.79115632 -.00002320  00000-0 -13690-3 0  9999","BSTAR":"-0.00013690000000","CLASSIFICATION_TYPE":"U","DECAY_DATE":null,"REV_AT_EPOCH":"12655","MEAN_MOTION":"15.06394913","MEAN_MOTION_DOT":"-0.00002320","EPHEMERIS_TYPE":"0","OBJECT_ID":"2021-018AK","RCS_SIZE":"LARGE","FILE":"3936745","REF_FRAME":"TEME","CENTER_NAME":"EARTH","MEAN_ANOMALY":"275.9373","OBJECT_TYPE":"PAYLOAD","RA_OF_ASC_NODE":"47.8906","COUNTRY_CODE":"US","INCLINATION":"53.0545","TLE_LINE2":"2 47820  53.0545  47.8906 0001350  84.1770 275.9373 15.06394913126551","ARG_OF_PERICENTER":"84.1770"},{"SEMIMAJOR_AXIS":"6925.362","MEAN_ELEMENT_THEORY":"SGP4","LAUNCH_DATE":"2021-03-11","PERIAPSIS":"546.407","ECCENTRICITY":"0.00011830","MEAN_MOTION_DDOT":"0.0000000000000","ELEMENT_SET_NO":"999","OBJECT_NAME":"STARLINK-2406","TIME_SYSTEM":"UTC","APOAPSIS":"548.046","SITE":"AFETR","GP_ID":"234245654","EPOCH":"2023-06-18T18:28:45.374304","NORAD_CAT_ID":"47821","CLASSIFICATION_TYPE":"U","DECAY_DATE":null,"REV_AT_EPOCH":"12663","PERIOD":"95.592","BSTAR":"0.00022795000000","TLE_LINE1":"1 47821U 21018AL  23169.76996961  .00003115  00000-0  22795-3 0  9996","EPHEMERIS_TYPE":"0","OBJECT_ID":"2021-018AL","FILE":"3936745","RCS_SIZE":"LARGE","MEAN_MOTION":"15.06395698","MEAN_MOTION_DOT":"0.00003115","INCLINATION":"53.0546","TLE_LINE2":"2 47821  53.0546  37.9950 0001183 120.9862 239.1243 15.06395698126635","ARG_OF_PERICENTER":"120.9862","CENTER_NAME":"EARTH","REF_FRAME":"TEME","COUNTRY_CODE":"US","MEAN_ANOMALY":"239.1243","OBJECT_TYPE":"PAYLOAD","RA_OF_ASC_NODE":"37.9950"},{"MEAN_MOTION_DDOT":"0.0000000000000","ELEMENT_SET_NO":"999","OBJECT_NAME":"STARLINK-2407","TIME_SYSTEM":"UTC","APOAPSIS":"548.153","SEMIMAJOR_AXIS":"6925.400","MEAN_ELEMENT_THEORY":"SGP4","LAUNCH_DATE":"2021-03-11","PERIAPSIS":"546.378","ECCENTRICITY":"0.00012820","MEAN_MOTION":"15.06383054","MEAN_MOTION_DOT":"0.00007231","EPHEMERIS_TYPE":"0","OBJECT_ID":"2021-018AM","FILE":"3936745","RCS_SIZE":"LARGE","CENTER_NAME":"EARTH","REF_FRAME":"TEME","COUNTRY_CODE":"US","OBJECT_TYPE":"PAYLOAD","RA_OF_ASC_NODE":"47.9357","MEAN_ANOMALY":"270.9295","INCLINATION":"53.0545","TLE_LINE2":"2 47822  53.0545  47.9357 0001282  89.1841 270.9295 15.06383054126509","ARG_OF_PERICENTER":"89.1841","EPOCH":"2023-06-18T18:41:58.842528","GP_ID":"234243912","NORAD_CAT_ID":"47822","SITE":"AFETR","PERIOD":"95.593","BSTAR":"0.00050408000000","TLE_LINE1":"1 47822U 21018AM  23169.77915327  .00007231  00000-0  50408-3 0  9990","CLASSIFICATION_TYPE":"U","DECAY_DATE":null,"REV_AT_EPOCH":"12650"},{"ECCENTRICITY":"0.00012140","PERIAPSIS":"546.384","LAUNCH_DATE":"2021-03-11","SEMIMAJOR_AXIS":"6925.360","MEAN_ELEMENT_THEORY":"SGP4","APOAPSIS":"548.066","TIME_SYSTEM":"UTC","ELEMENT_SET_NO":"999","MEAN_MOTION_DDOT":"0.0000000000000","OBJECT_NAME":"STARLINK-2408","PERIOD":"95.592","TLE_LINE1":"1 47823U 21018AN  23169.79482624  .00000548  00000-0  55683-4 0  9997","BSTAR":"0.00005568300000","CLASSIFICATION_TYPE":"U","DECAY_DATE":null,"REV_AT_EPOCH":"12664","NORAD_CAT_ID":"47823","GP_ID":"234244662","EPOCH":"2023-06-18T19:04:32.987136","SITE":"AFETR","REF_FRAME":"TEME","CENTER_NAME":"EARTH","MEAN_ANOMALY":"271.4620","OBJECT_TYPE":"PAYLOAD","RA_OF_ASC_NODE":"37.8637","COUNTRY_CODE":"US","INCLINATION":"53.0550","TLE_LINE2":"2 47823  53.0550  37.8637 0001214  88.6508 271.4620 15.06396264126644","ARG_OF_PERICENTER":"88.6508","MEAN_MOTION":"15.06396264","MEAN_MOTION_DOT":"0.00000548","OBJECT_ID":"2021-018AN","EPHEMERIS_TYPE":"0","RCS_SIZE":"LARGE","FILE":"3936745"},{"EPOCH":"2023-06-18T18:49:59.287008","GP_ID":"234245411","NORAD_CAT_ID":"47824","SITE":"AFETR","BSTAR":"0.00006870200000","TLE_LINE1":"1 47824U 21018AP  23169.78471397  .00000742  00000-0  68702-4 0  9994","PERIOD":"95.593","REV_AT_EPOCH":"12663","CLASSIFICATION_TYPE":"U","DECAY_DATE":null,"MEAN_MOTION_DOT":"0.00000742","MEAN_MOTION":"15.06393102","FILE":"3936745","RCS_SIZE":"LARGE","OBJECT_ID":"2021-018AP","EPHEMERIS_TYPE":"0","COUNTRY_CODE":"US","OBJECT_TYPE":"PAYLOAD","MEAN_ANOMALY":"265.4488","RA_OF_ASC_NODE":"37.9188","CENTER_NAME":"EARTH","REF_FRAME":"TEME","TLE_LINE2":"2 47824  53.0560  37.9188 0001216  94.6640 265.4488 15.06393102126636","ARG_OF_PERICENTER":"94.6640","INCLINATION":"53.0560","MEAN_ELEMENT_THEORY":"SGP4","SEMIMAJOR_AXIS":"6925.370","LAUNCH_DATE":"2021-03-11","PERIAPSIS":"546.393","ECCENTRICITY":"0.00012160","OBJECT_NAME":"STARLINK-2409","ELEMENT_SET_NO":"999","MEAN_MOTION_DDOT":"0.0000000000000","TIME_SYSTEM":"UTC","APOAPSIS":"548.077"},{"NORAD_CAT_ID":"47825","EPOCH":"2023-06-18T16:05:29.631840","GP_ID":"234245155","SITE":"AFETR","PERIOD":"95.593","TLE_LINE1":"1 47825U 21018AQ  23169.67048185  .00011144  00000-0  76604-3 0  9995","BSTAR":"0.00076604000000","CLASSIFICATION_TYPE":"U","DECAY_DATE":null,"REV_AT_EPOCH":"12662","MEAN_MOTION":"15.06391027","MEAN_MOTION_DOT":"0.00011144","OBJECT_ID":"2021-018AQ","EPHEMERIS_TYPE":"0","RCS_SIZE":"LARGE","FILE":"3936745","REF_FRAME":"TEME","CENTER_NAME":"EARTH","MEAN_ANOMALY":"261.0756","OBJECT_TYPE":"PAYLOAD","RA_OF_ASC_NODE":"38.4324","COUNTRY_CODE":"US","INCLINATION":"53.0543","TLE_LINE2":"2 47825  53.0543  38.4324 0001225  99.0372 261.0756 15.06391027126620","ARG_OF_PERICENTER":"99.0372","SEMIMAJOR_AXIS":"6925.376","MEAN_ELEMENT_THEORY":"SGP4","ECCENTRICITY":"0.00012250","PERIAPSIS":"546.393","LAUNCH_DATE":"2021-03-11","MEAN_MOTION_DDOT":"0.0000000000000","ELEMENT_SET_NO":"999","OBJECT_NAME":"STARLINK-2410","APOAPSIS":"548.089","TIME_SYSTEM":"UTC"},{"OBJECT_ID":"2021-018AR","EPHEMERIS_TYPE":"0","RCS_SIZE":"LARGE","FILE":"3936745","MEAN_MOTION":"15.06391736","MEAN_MOTION_DOT":"-0.00003109","INCLINATION":"53.0558","TLE_LINE2":"2 47826  53.0558  38.1501 0001073  80.8735 279.2375 15.06391736126639","ARG_OF_PERICENTER":"80.8735","REF_FRAME":"TEME","CENTER_NAME":"EARTH","OBJECT_TYPE":"PAYLOAD","MEAN_ANOMALY":"279.2375","RA_OF_ASC_NODE":"38.1501","COUNTRY_CODE":"US","SITE":"AFETR","NORAD_CAT_ID":"47826","EPOCH":"2023-06-18T17:35:40.926048","GP_ID":"234244412","CLASSIFICATION_TYPE":"U","DECAY_DATE":null,"REV_AT_EPOCH":"12663","PERIOD":"95.593","TLE_LINE1":"1 47826U 21018AR  23169.73311257 -.00003109  00000-0 -18996-3 0  9990","BSTAR":"-0.00018996000000","ELEMENT_SET_NO":"999","MEAN_MOTION_DDOT":"0.0000000000000","OBJECT_NAME":"STARLINK-2411","APOAPSIS":"547.982","TIME_SYSTEM":"UTC","SEMIMAJOR_AXIS":"6925.374","MEAN_ELEMENT_THEORY":"SGP4","ECCENTRICITY":"0.00010730","LAUNCH_DATE":"2021-03-11","PERIAPSIS":"546.496"},{"INCLINATION":"53.0539","TLE_LINE2":"2 47827  53.0539  28.4750 0001218  79.2924 280.8202 15.06395752126437","ARG_OF_PERICENTER":"79.2924","REF_FRAME":"TEME","CENTER_NAME":"EARTH","OBJECT_TYPE":"PAYLOAD","RA_OF_ASC_NODE":"28.4750","MEAN_ANOMALY":"280.8202","COUNTRY_CODE":"US","EPHEMERIS_TYPE":"0","OBJECT_ID":"2021-018AS","RCS_SIZE":"LARGE","FILE":"3936574","MEAN_MOTION":"15.06395752","MEAN_MOTION_DOT":"0.00013480","CLASSIFICATION_TYPE":"U","DECAY_DATE":null,"REV_AT_EPOCH":"12643","PERIOD":"95.592","TLE_LINE1":"1 47827U 21018AS  23169.71562717  .00013480  00000-0  92220-3 0  9991","BSTAR":"0.00092220000000","SITE":"AFETR","NORAD_CAT_ID":"47827","GP_ID":"234219682","EPOCH":"2023-06-18T17:10:30.187488","APOAPSIS":"548.070","TIME_SYSTEM":"UTC","ELEMENT_SET_NO":"999","MEAN_MOTION_DDOT":"0.0000000000000","OBJECT_NAME":"STARLINK-2413","ECCENTRICITY":"0.00012180","LAUNCH_DATE":"2021-03-11","PERIAPSIS":"546.383","SEMIMAJOR_AXIS":"6925.362","MEAN_ELEMENT_THEORY":"SGP4"}];
